MOLNIYA 3-24            
1 15738U 85040A   22227.62219785 -.00000112  00000+0  00000+0 0  9999
2 15738  63.6674  71.7726 6815920 247.2836  30.6854  2.55627292305386
MOLNIYA 3-27            
1 16393U 85117A   22228.02026364 -.00000144  00000+0  00000+0 0  9991
2 16393  64.3941  73.7774 6991497 248.1258  27.9516  2.12396991275445
MOLNIYA 1-69            
1 17078U 86089A   22229.17620521  .00000070  00000+0  00000+0 0  9990
2 17078  63.9916 180.8441 6649080 257.7665  25.8527  2.00679251262041
MOLNIYA 3-31            
1 17328U 87008A   22229.77046346  .00000410  00000+0  00000+0 0  9991
2 17328  63.6947 121.4586 7049107 253.7828  23.8093  2.00606108257099
MOLNIYA 1-71            
1 18946U 88017A   22229.71530078 -.00000261  00000+0  00000+0 0  9998
2 18946  63.4092 115.4800 7162441 256.4260  21.2254  2.00648167252282
MOLNIYA 1-75            
1 19807U 89014A   22230.42889099  .00000079  00000+0  00000+0 0  9999
2 19807  64.0511 277.8034 6850168 266.7921  19.5258  2.00582410245241
MOLNIYA 1-80            
1 21118U 91012A   22226.12233434  .00000353  00000+0  00000+0 0  9991
2 21118  65.1923 326.6439 6787836 276.9056  16.3458  2.05232665232166
MOLNIYA 3-40            
1 21196U 91022A   22230.40374864  .00000799  00000+0  00000+0 0  9991
2 21196  65.1097 319.7890 6816669 273.6453  17.2253  2.03012638230941
MOLNIYA 1-81            
1 21426U 91043A   22230.34284080 -.00000029  00000+0  00000+0 0  9990
2 21426  64.1079 336.2016 7097004 266.6755  17.5032  2.00634059228402
MOLNIYA 3-41            
1 21706U 91065A   22230.55038847  .00001205  00000+0  00000+0 0  9992
2 21706  64.0998 159.3136 6847404 255.3471  25.1232  2.04342482228132
MOLNIYA 3-42            
1 22178U 92067A   22230.03874352  .00000182  00000+0  00000+0 0  9994
2 22178  64.6761 209.4543 6426774 266.0962  23.6430  2.20435724 81417
MOLNIYA 1-86            
1 22671U 93035A   22230.90714149  .00000447  00000+0  54203-3 0  9993
2 22671  63.0876 200.6428 4860687   8.0133 357.5496  5.62689176355817
MOLNIYA 1-87            
1 22949U 93079A   22228.69087803 -.00000026  00000+0  00000+0 0  9998
2 22949  63.9939  85.3757 6879868 284.0648  13.3331  2.02880202 76153
MOLNIYA 1-88            
1 23420U 94081A   22230.97640647  .00000083  00000+0  00000+0 0  9994
2 23420  64.2792 181.9085 5801860 281.9314  21.7214  3.34498018249036
MOLNIYA 3-47            
1 23642U 95042A   22230.66349742  .00000619  00000+0  00000+0 0  9991
2 23642  64.1155  66.9162 6930769 284.3157  12.9289  2.01971592198365
MOLNIYA 1-90            
1 24960U 97054A   22229.90925660  .00000025  00000+0 -48037-2 0  9991
2 24960  63.6405 148.7237 6111967 298.3168  13.8071  3.18688997209962
MOLNIYA 1-91            
1 25485U 98054A   22231.19441951  .00000128  00000+0  22925-2 0  9996
2 25485  63.0283 140.4401 6773924 291.8923 171.6992  2.36444661179866
