[{"OBJECT_NAME":"MOLNIYA 3-24","OBJECT_ID":"1985-040A","EPOCH":"2022-08-15T14:55:57.894240","MEAN_MOTION":2.55627292,"ECCENTRICITY":0.681592,"INCLINATION":63.6674,"RA_OF_ASC_NODE":71.7726,"ARG_OF_PERICENTER":247.2836,"MEAN_ANOMALY":30.6854,"EPHEMERIS_TYPE":0,"CLASSIFICATION_TYPE":"U","NORAD_CAT_ID":15738,"ELEMENT_SET_NO":999,"REV_AT_EPOCH":30538,"BSTAR":0,"MEAN_MOTION_DOT":-1.12e-6,"MEAN_MOTION_DDOT":0},{"OBJECT_NAME":"MOLNIYA 3-27","OBJECT_ID":"1985-117A","EPOCH":"2022-08-16T00:29:10.778496","MEAN_MOTION":2.12396991,"ECCENTRICITY":0.6991497,"INCLINATION":64.3941,"RA_OF_ASC_NODE":73.7774,"ARG_OF_PERICENTER":248.1258,"MEAN_ANOMALY":27.9516,"EPHEMERIS_TYPE":0,"CLASSIFICATION_TYPE":"U","NORAD_CAT_ID":16393,"ELEMENT_SET_NO":999,"REV_AT_EPOCH":27544,"BSTAR":0,"MEAN_MOTION_DOT":-1.44e-6,"MEAN_MOTION_DDOT":0},{"OBJECT_NAME":"MOLNIYA 1-69","OBJECT_ID":"1986-089A","EPOCH":"2022-08-17T04:13:44.130144","MEAN_MOTION":2.00679251,"ECCENTRICITY":0.664908,"INCLINATION":63.9916,"RA_OF_ASC_NODE":180.8441,"ARG_OF_PERICENTER":257.7665,"MEAN_ANOMALY":25.8527,"EPHEMERIS_TYPE":0,"CLASSIFICATION_TYPE":"U","NORAD_CAT_ID":17078,"ELEMENT_SET_NO":999,"REV_AT_EPOCH":26204,"BSTAR":0,"MEAN_MOTION_DOT":7.0e-7,"MEAN_MOTION_DDOT":0},{"OBJECT_NAME":"MOLNIYA 3-31","OBJECT_ID":"1987-008A","EPOCH":"2022-08-17T18:29:28.042944","MEAN_MOTION":2.00606108,"ECCENTRICITY":0.7049107,"INCLINATION":63.6947,"RA_OF_ASC_NODE":121.4586,"ARG_OF_PERICENTER":253.7828,"MEAN_ANOMALY":23.8093,"EPHEMERIS_TYPE":0,"CLASSIFICATION_TYPE":"U","NORAD_CAT_ID":17328,"ELEMENT_SET_NO":999,"REV_AT_EPOCH":25709,"BSTAR":0,"MEAN_MOTION_DOT":4.1e-6,"MEAN_MOTION_DDOT":0},{"OBJECT_NAME":"MOLNIYA 1-71","OBJECT_ID":"1988-017A","EPOCH":"2022-08-17T17:10:01.987392","MEAN_MOTION":2.00648167,"ECCENTRICITY":0.7162441,"INCLINATION":63.4092,"RA_OF_ASC_NODE":115.48,"ARG_OF_PERICENTER":256.426,"MEAN_ANOMALY":21.2254,"EPHEMERIS_TYPE":0,"CLASSIFICATION_TYPE":"U","NORAD_CAT_ID":18946,"ELEMENT_SET_NO":999,"REV_AT_EPOCH":25228,"BSTAR":0,"MEAN_MOTION_DOT":-2.61e-6,"MEAN_MOTION_DDOT":0},{"OBJECT_NAME":"MOLNIYA 1-75","OBJECT_ID":"1989-014A","EPOCH":"2022-08-18T10:17:36.181536","MEAN_MOTION":2.0058241,"ECCENTRICITY":0.6850168,"INCLINATION":64.0511,"RA_OF_ASC_NODE":277.8034,"ARG_OF_PERICENTER":266.7921,"MEAN_ANOMALY":19.5258,"EPHEMERIS_TYPE":0,"CLASSIFICATION_TYPE":"U","NORAD_CAT_ID":19807,"ELEMENT_SET_NO":999,"REV_AT_EPOCH":24524,"BSTAR":0,"MEAN_MOTION_DOT":7.9e-7,"MEAN_MOTION_DDOT":0},{"OBJECT_NAME":"MOLNIYA 1-80","OBJECT_ID":"1991-012A","EPOCH":"2022-08-14T02:56:09.686976","MEAN_MOTION":2.05232665,"ECCENTRICITY":0.6787836,"INCLINATION":65.1923,"RA_OF_ASC_NODE":326.6439,"ARG_OF_PERICENTER":276.9056,"MEAN_ANOMALY":16.3458,"EPHEMERIS_TYPE":0,"CLASSIFICATION_TYPE":"U","NORAD_CAT_ID":21118,"ELEMENT_SET_NO":999,"REV_AT_EPOCH":23216,"BSTAR":0,"MEAN_MOTION_DOT":3.53e-6,"MEAN_MOTION_DDOT":0},{"OBJECT_NAME":"MOLNIYA 3-40","OBJECT_ID":"1991-022A","EPOCH":"2022-08-18T09:41:23.882496","MEAN_MOTION":2.03012638,"ECCENTRICITY":0.6816669,"INCLINATION":65.1097,"RA_OF_ASC_NODE":319.789,"ARG_OF_PERICENTER":273.6453,"MEAN_ANOMALY":17.2253,"EPHEMERIS_TYPE":0,"CLASSIFICATION_TYPE":"U","NORAD_CAT_ID":21196,"ELEMENT_SET_NO":999,"REV_AT_EPOCH":23094,"BSTAR":0,"MEAN_MOTION_DOT":7.99e-6,"MEAN_MOTION_DDOT":0},{"OBJECT_NAME":"MOLNIYA 1-81","OBJECT_ID":"1991-043A","EPOCH":"2022-08-18T08:13:41.445120","MEAN_MOTION":2.00634059,"ECCENTRICITY":0.7097004,"INCLINATION":64.1079,"RA_OF_ASC_NODE":336.2016,"ARG_OF_PERICENTER":266.6755,"MEAN_ANOMALY":17.5032,"EPHEMERIS_TYPE":0,"CLASSIFICATION_TYPE":"U","NORAD_CAT_ID":21426,"ELEMENT_SET_NO":999,"REV_AT_EPOCH":22840,"BSTAR":0,"MEAN_MOTION_DOT":-2.9e-7,"MEAN_MOTION_DDOT":0},{"OBJECT_NAME":"MOLNIYA 3-41","OBJECT_ID":"1991-065A","EPOCH":"2022-08-18T13:12:33.563808","MEAN_MOTION":2.04342482,"ECCENTRICITY":0.6847404,"INCLINATION":64.0998,"RA_OF_ASC_NODE":159.3136,"ARG_OF_PERICENTER":255.3471,"MEAN_ANOMALY":25.1232,"EPHEMERIS_TYPE":0,"CLASSIFICATION_TYPE":"U","NORAD_CAT_ID":21706,"ELEMENT_SET_NO":999,"REV_AT_EPOCH":22813,"BSTAR":0,"MEAN_MOTION_DOT":1.205e-5,"MEAN_MOTION_DDOT":0},{"OBJECT_NAME":"MOLNIYA 3-42","OBJECT_ID":"1992-067A","EPOCH":"2022-08-18T00:55:47.440128","MEAN_MOTION":2.20435724,"ECCENTRICITY":0.6426774,"INCLINATION":64.6761,"RA_OF_ASC_NODE":209.4543,"ARG_OF_PERICENTER":266.0962,"MEAN_ANOMALY":23.643,"EPHEMERIS_TYPE":0,"CLASSIFICATION_TYPE":"U","NORAD_CAT_ID":22178,"ELEMENT_SET_NO":999,"REV_AT_EPOCH":8141,"BSTAR":0,"MEAN_MOTION_DOT":1.82e-6,"MEAN_MOTION_DDOT":0},{"OBJECT_NAME":"MOLNIYA 1-86","OBJECT_ID":"1993-035A","EPOCH":"2022-08-18T21:46:17.024736","MEAN_MOTION":5.62689176,"ECCENTRICITY":0.4860687,"INCLINATION":63.0876,"RA_OF_ASC_NODE":200.6428,"ARG_OF_PERICENTER":8.0133,"MEAN_ANOMALY":357.5496,"EPHEMERIS_TYPE":0,"CLASSIFICATION_TYPE":"U","NORAD_CAT_ID":22671,"ELEMENT_SET_NO":999,"REV_AT_EPOCH":35581,"BSTAR":0.00054203,"MEAN_MOTION_DOT":4.47e-6,"MEAN_MOTION_DDOT":0},{"OBJECT_NAME":"MOLNIYA 1-87","OBJECT_ID":"1993-079A","EPOCH":"2022-08-16T16:34:51.861792","MEAN_MOTION":2.02880202,"ECCENTRICITY":0.6879868,"INCLINATION":63.9939,"RA_OF_ASC_NODE":85.3757,"ARG_OF_PERICENTER":284.0648,"MEAN_ANOMALY":13.3331,"EPHEMERIS_TYPE":0,"CLASSIFICATION_TYPE":"U","NORAD_CAT_ID":22949,"ELEMENT_SET_NO":999,"REV_AT_EPOCH":7615,"BSTAR":0,"MEAN_MOTION_DOT":-2.6e-7,"MEAN_MOTION_DDOT":0},{"OBJECT_NAME":"MOLNIYA 1-88","OBJECT_ID":"1994-081A","EPOCH":"2022-08-18T23:26:01.519008","MEAN_MOTION":3.34498018,"ECCENTRICITY":0.580186,"INCLINATION":64.2792,"RA_OF_ASC_NODE":181.9085,"ARG_OF_PERICENTER":281.9314,"MEAN_ANOMALY":21.7214,"EPHEMERIS_TYPE":0,"CLASSIFICATION_TYPE":"U","NORAD_CAT_ID":23420,"ELEMENT_SET_NO":999,"REV_AT_EPOCH":24903,"BSTAR":0,"MEAN_MOTION_DOT":8.3e-7,"MEAN_MOTION_DDOT":0},{"OBJECT_NAME":"MOLNIYA 3-47","OBJECT_ID":"1995-042A","EPOCH":"2022-08-18T15:55:26.177088","MEAN_MOTION":2.01971592,"ECCENTRICITY":0.6930769,"INCLINATION":64.1155,"RA_OF_ASC_NODE":66.9162,"ARG_OF_PERICENTER":284.3157,"MEAN_ANOMALY":12.9289,"EPHEMERIS_TYPE":0,"CLASSIFICATION_TYPE":"U","NORAD_CAT_ID":23642,"ELEMENT_SET_NO":999,"REV_AT_EPOCH":19836,"BSTAR":0,"MEAN_MOTION_DOT":6.19e-6,"MEAN_MOTION_DDOT":0},{"OBJECT_NAME":"MOLNIYA 1-90","OBJECT_ID":"1997-054A","EPOCH":"2022-08-17T21:49:19.770240","MEAN_MOTION":3.18688997,"ECCENTRICITY":0.6111967,"INCLINATION":63.6405,"RA_OF_ASC_NODE":148.7237,"ARG_OF_PERICENTER":298.3168,"MEAN_ANOMALY":13.8071,"EPHEMERIS_TYPE":0,"CLASSIFICATION_TYPE":"U","NORAD_CAT_ID":24960,"ELEMENT_SET_NO":999,"REV_AT_EPOCH":20996,"BSTAR":-0.0048037,"MEAN_MOTION_DOT":2.5e-7,"MEAN_MOTION_DDOT":0},{"OBJECT_NAME":"MOLNIYA 1-91","OBJECT_ID":"1998-054A","EPOCH":"2022-08-19T04:39:57.845664","MEAN_MOTION":2.36444661,"ECCENTRICITY":0.6773924,"INCLINATION":63.0283,"RA_OF_ASC_NODE":140.4401,"ARG_OF_PERICENTER":291.8923,"MEAN_ANOMALY":171.6992,"EPHEMERIS_TYPE":0,"CLASSIFICATION_TYPE":"U","NORAD_CAT_ID":25485,"ELEMENT_SET_NO":999,"REV_AT_EPOCH":17986,"BSTAR":0.0022925,"MEAN_MOTION_DOT":1.28e-6,"MEAN_MOTION_DDOT":0}]